{"type": "FeatureCollection", "features": [ {"type": "Feature", "properties": {"norad_id": 66638, "name": "STARLINK-35972", "group": "last-30-days", "lat": -52.289191728088234, "lon": 103.77025872963551, "alt_km": 423.578484083343, "timestamp": "2025-12-14T07:33:18.187617+00:00", "meta": {"OBJECT_NAME": "STARLINK-35972", "OBJECT_ID": "2025-271X", "EPOCH": "2025-12-13T14:00:03.000384", "MEAN_MOTION": 15.49302707, "ECCENTRICITY": 4.833e-05, "INCLINATION": 53.1603, "RA_OF_ASC_NODE": 183.1135, "ARG_OF_PERICENTER": 83.5679, "MEAN_ANOMALY": 73.0728, "EPHEMERIS_TYPE": 0, "CLASSIFICATION_TYPE": "U", "NORAD_CAT_ID": 66638, "ELEMENT_SET_NO": 999, "REV_AT_EPOCH": 437, "BSTAR": 0.0013007708, "MEAN_MOTION_DOT": 0.00072554, "MEAN_MOTION_DDOT": 0}, "tle": {"line1": "1 66638U 25271X   25347.58336806  .00072554  00000+0  13008-2 0  9992", "line2": "2 66638  53.1603 183.1135 0000483  83.5679  73.0728 15.49302707  4373"}}, "geometry": {"type": "Point", "coordinates": [103.77025872963551, -52.289191728088234]}}, {"type": "Feature", "properties": {"norad_id": 66639, "name": "STARLINK-35908", "group": "last-30-days", "lat": -51.876709391219634, "lon": 106.79751387073793, "alt_km": 423.57852389784784, "timestamp": "2025-12-14T07:33:18.187627+00:00", "meta": {"OBJECT_NAME": "STARLINK-35908", "OBJECT_ID": "2025-271Y", "EPOCH": "2025-12-13T14:00:03.000384", "MEAN_MOTION": 15.49301111, "ECCENTRICITY": 5.273e-05, "INCLINATION": 53.1603, "RA_OF_ASC_NODE": 183.1087, "ARG_OF_PERICENTER": 77.1854, "MEAN_ANOMALY": 81.3683, "EPHEMERIS_TYPE": 0, "CLASSIFICATION_TYPE": "U", "NORAD_CAT_ID": 66639, "ELEMENT_SET_NO": 999, "REV_AT_EPOCH": 437, "BSTAR": 0.0013377671, "MEAN_MOTION_DOT": 0.00074646, "MEAN_MOTION_DDOT": 0}, "tle": {"line1": "1 66639U 25271Y   25347.58336806  .00074646  00000+0  13378-2 0  9997", "line2": "2 66639  53.1603 183.1087 0000527  77.1854  81.3683 15.49301111  4373"}}, "geometry": {"type": "Point", "coordinates": [106.79751387073793, -51.876709391219634]}}, {"type": "Feature", "properties": {"norad_id": 66640, "name": "STARLINK-35921", "group": "last-30-days", "lat": -51.38482716325957, "lon": 109.7821990834391, "alt_km": 424.18275489588177, "timestamp": "2025-12-14T07:33:18.187642+00:00", "meta": {"OBJECT_NAME": "STARLINK-35921", "OBJECT_ID": "2025-271Z", "EPOCH": "2025-12-13T14:00:03.000384", "MEAN_MOTION": 15.49271705, "ECCENTRICITY": 0.00012261, "INCLINATION": 53.1603, "RA_OF_ASC_NODE": 183.1047, "ARG_OF_PERICENTER": 94.7954, "MEAN_ANOMALY": 65.7749, "EPHEMERIS_TYPE": 0, "CLASSIFICATION_TYPE": "U", "NORAD_CAT_ID": 66640, "ELEMENT_SET_NO": 999, "REV_AT_EPOCH": 437, "BSTAR": 0.0011781349, "MEAN_MOTION_DOT": 0.0006554, "MEAN_MOTION_DDOT": 0}, "tle": {"line1": "1 66640U 25271Z   25347.58336806  .00065540  00000+0  11781-2 0  9998", "line2": "2 66640  53.1603 183.1047 0001226  94.7954  65.7749 15.49271705  4378"}}, "geometry": {"type": "Point", "coordinates": [109.7821990834391, -51.38482716325957]}}, {"type": "Feature", "properties": {"norad_id": 66641, "name": "STARLINK-35923", "group": "last-30-days", "lat": -48.716975167912004, "lon": 120.95271627031487, "alt_km": 424.1232793260324, "timestamp": "2025-12-14T07:33:18.187652+00:00", "meta": {"OBJECT_NAME": "STARLINK-35923", "OBJECT_ID": "2025-271AA", "EPOCH": "2025-12-13T14:00:03.000384", "MEAN_MOTION": 15.49271427, "ECCENTRICITY": 0.0001289, "INCLINATION": 53.1604, "RA_OF_ASC_NODE": 183.088, "ARG_OF_PERICENTER": 98.8693, "MEAN_ANOMALY": 69.3606, "EPHEMERIS_TYPE": 0, "CLASSIFICATION_TYPE": "U", "NORAD_CAT_ID": 66641, "ELEMENT_SET_NO": 999, "REV_AT_EPOCH": 437, "BSTAR": 0.0012652146, "MEAN_MOTION_DOT": 0.00070461, "MEAN_MOTION_DDOT": 0}, "tle": {"line1": "1 66641U 25271AA  25347.58336806  .00070461  00000+0  12652-2 0  9995", "line2": "2 66641  53.1604 183.0880 0001289  98.8693  69.3606 15.49271427  4371"}}, "geometry": {"type": "Point", "coordinates": [120.95271627031487, -48.716975167912004]}}, {"type": "Feature", "properties": {"norad_id": 66642, "name": "STARLINK-35926", "group": "last-30-days", "lat": -49.48695013908942, "lon": 118.26429177683004, "alt_km": 423.5271366256384, "timestamp": "2025-12-14T07:33:18.187662+00:00", "meta": {"OBJECT_NAME": "STARLINK-35926", "OBJECT_ID": "2025-271AB", "EPOCH": "2025-12-13T14:00:03.000384", "MEAN_MOTION": 15.49308639, "ECCENTRICITY": 6.136e-05, "INCLINATION": 53.1602, "RA_OF_ASC_NODE": 183.093, "ARG_OF_PERICENTER": 73.0878, "MEAN_ANOMALY": 93.1192, "EPHEMERIS_TYPE": 0, "CLASSIFICATION_TYPE": "U", "NORAD_CAT_ID": 66642, "ELEMENT_SET_NO": 999, "REV_AT_EPOCH": 414, "BSTAR": 0.0012529995, "MEAN_MOTION_DOT": 0.00069863, "MEAN_MOTION_DDOT": 0}, "tle": {"line1": "1 66642U 25271AB  25347.58336806  .00069863  00000+0  12530-2 0  9995", "line2": "2 66642  53.1602 183.0930 0000613  73.0878  93.1192 15.49308639  4142"}}, "geometry": {"type": "Point", "coordinates": [118.26429177683004, -49.48695013908942]}}, {"type": "Feature", "properties": {"norad_id": 66643, "name": "STARLINK-35918", "group": "last-30-days", "lat": -50.81986126290798, "lon": 112.69320443585156, "alt_km": 424.05569851988093, "timestamp": "2025-12-14T07:33:18.187672+00:00", "meta": {"OBJECT_NAME": "STARLINK-35918", "OBJECT_ID": "2025-271AC", "EPOCH": "2025-12-13T14:00:03.000384", "MEAN_MOTION": 15.49264214, "ECCENTRICITY": 0.00010886, "INCLINATION": 53.1604, "RA_OF_ASC_NODE": 183.1009, "ARG_OF_PERICENTER": 93.9242, "MEAN_ANOMALY": 68.5688, "EPHEMERIS_TYPE": 0, "CLASSIFICATION_TYPE": "U", "NORAD_CAT_ID": 66643, "ELEMENT_SET_NO": 999, "REV_AT_EPOCH": 437, "BSTAR": 0.00133137, "MEAN_MOTION_DOT": 0.00074186, "MEAN_MOTION_DDOT": 0}, "tle": {"line1": "1 66643U 25271AC  25347.58336806  .00074186  00000+0  13314-2 0  9991", "line2": "2 66643  53.1604 183.1009 0001088  93.9242  68.5688 15.49264214  4377"}}, "geometry": {"type": "Point", "coordinates": [112.69320443585156, -50.81986126290798]}}, {"type": "Feature", "properties": {"norad_id": 66644, "name": "STARLINK-35938", "group": "last-30-days", "lat": -50.18948623005108, "lon": 115.50652766402847, "alt_km": 423.4797207280544, "timestamp": "2025-12-14T07:33:18.187685+00:00", "meta": {"OBJECT_NAME": "STARLINK-35938", "OBJECT_ID": "2025-271AD", "EPOCH": "2025-12-13T14:00:03.000384", "MEAN_MOTION": 15.49306715, "ECCENTRICITY": 5.378e-05, "INCLINATION": 53.1603, "RA_OF_ASC_NODE": 183.0971, "ARG_OF_PERICENTER": 64.8901, "MEAN_ANOMALY": 99.4011, "EPHEMERIS_TYPE": 0, "CLASSIFICATION_TYPE": "U", "NORAD_CAT_ID": 66644, "ELEMENT_SET_NO": 999, "REV_AT_EPOCH": 437, "BSTAR": 0.0012797458, "MEAN_MOTION_DOT": 0.00071373, "MEAN_MOTION_DDOT": 0}, "tle": {"line1": "1 66644U 25271AD  25347.58336806  .00071373  00000+0  12797-2 0  9991", "line2": "2 66644  53.1603 183.0971 0000537  64.8901  99.4011 15.49306715  4377"}}, "geometry": {"type": "Point", "coordinates": [115.50652766402847, -50.18948623005108]}}, {"type": "Feature", "properties": {"norad_id": 66645, "name": "SHENZHOU-22", "group": "last-30-days", "lat": -4.350335195677988, "lon": 2.202160053573986, "alt_km": 386.37588996146224, "timestamp": "2025-12-14T07:33:18.187695+00:00", "meta": {"OBJECT_NAME": "SHENZHOU-22", "OBJECT_ID": "2025-272A", "EPOCH": "2025-12-13T13:08:11.407200", "MEAN_MOTION": 15.59213599, "ECCENTRICITY": 0.0008179, "INCLINATION": 41.4684, "RA_OF_ASC_NODE": 11.8051, "ARG_OF_PERICENTER": 37.3165, "MEAN_ANOMALY": 322.8241, "EPHEMERIS_TYPE": 0, "CLASSIFICATION_TYPE": "U", "NORAD_CAT_ID": 66645, "ELEMENT_SET_NO": 999, "REV_AT_EPOCH": 26357, "BSTAR": 0.00029086041, "MEAN_MOTION_DOT": 0.00023242, "MEAN_MOTION_DDOT": 0}, "tle": {"line1": "1 66645U 25272A   25347.54735425  .00023242  00000+0  29086-3 0  9991", "line2": "2 66645  41.4684  11.8051 0008179  37.3165 322.8241 15.59213599263576"}}, "geometry": {"type": "Point", "coordinates": [2.202160053573986, -4.350335195677988]}}, {"type": "Feature", "properties": {"norad_id": 66647, "name": "COSMOS 2597 (RODNIK-S 22)", "group": "last-30-days", "lat": -51.79346219175139, "lon": -84.16442897223655, "alt_km": 1499.4573296710987, "timestamp": "2025-12-14T07:33:18.187706+00:00", "meta": {"OBJECT_NAME": "COSMOS 2597 (RODNIK-S 22)", "OBJECT_ID": "2025-273A", "EPOCH": "2025-12-13T16:22:10.053984", "MEAN_MOTION": 12.41951632, "ECCENTRICITY": 0.00078589, "INCLINATION": 82.4988, "RA_OF_ASC_NODE": 285.8637, "ARG_OF_PERICENTER": 286.9733, "MEAN_ANOMALY": 73.0484, "EPHEMERIS_TYPE": 0, "CLASSIFICATION_TYPE": "U", "NORAD_CAT_ID": 66647, "ELEMENT_SET_NO": 999, "REV_AT_EPOCH": 225, "BSTAR": 0.00044226535, "MEAN_MOTION_DOT": 7e-07, "MEAN_MOTION_DDOT": 0}, "tle": {"line1": "1 66647U 25273A   25347.68206081  .00000070  00000+0  44227-3 0  9998", "line2": "2 66647  82.4988 285.8637 0007858 286.9733  73.0484 12.41951632  2254"}}, "geometry": {"type": "Point", "coordinates": [-84.16442897223655, -51.79346219175139]}}, {"type": "Feature", "properties": {"norad_id": 66648, "name": "COSMOS 2598 (RODNIK-S 23)", "group": "last-30-days", "lat": -9.361650912834667, "lon": -75.77423544615266, "alt_km": 1499.651421587855, "timestamp": "2025-12-14T07:33:18.187716+00:00", "meta": {"OBJECT_NAME": "COSMOS 2598 (RODNIK-S 23)", "OBJECT_ID": "2025-273B", "EPOCH": "2025-12-13T16:09:16.607232", "MEAN_MOTION": 12.43233345, "ECCENTRICITY": 0.00079968, "INCLINATION": 82.5023, "RA_OF_ASC_NODE": 285.8688, "ARG_OF_PERICENTER": 234.7794, "MEAN_ANOMALY": 125.2537, "EPHEMERIS_TYPE": 0, "CLASSIFICATION_TYPE": "U", "NORAD_CAT_ID": 66648, "ELEMENT_SET_NO": 999, "REV_AT_EPOCH": 225, "BSTAR": -4.8583724e-05, "MEAN_MOTION_DOT": 3e-08, "MEAN_MOTION_DDOT": 0}, "tle": {"line1": "1 66648U 25273B   25347.67310888  .00000003  00000+0 -48584-4 0  9997", "line2": "2 66648  82.5023 285.8688 0007996 234.7794 125.2537 12.43233345  2258"}}, "geometry": {"type": "Point", "coordinates": [-75.77423544615266, -9.361650912834667]}}]}